NORAD_CAT_ID,OBJECT_NAME,OBJECT_TYPE,EPOCH,MEAN_MOTION,ECCENTRICITY,INCLINATION,RA_OF_ASC_NODE,ARG_OF_PERICENTER,MEAN_ANOMALY,BSTAR,MEAN_MOTION_DOT,MEAN_MOTION_DDOT,TLE_LINE0,TLE_LINE1,TLE_LINE2,SEMIMAJOR_AXIS,PERIOD,APOGEE,PERIGEE,DECAYED
54785.0,STARLINK-5440,PAYLOAD,2023-05-17 22:00:00,15.39866235,0.0001217,53.2121,280.8299,79.8764,124.2964,-0.025124,-0.00928967,0.0,0 STARLINK-5440,1 54785U 22175AD  23137.91667824 -.00928967  00000-0 -25124-1 0  9993,2 54785  53.2121 280.8299 0001217  79.8764 124.2964 15.39866235 23488,6824.642,93.515,447.337,445.676,0.0
54785.0,STARLINK-5440,PAYLOAD,2023-05-18 14:00:01,15.38554092,0.0001203,53.2127,277.6936,88.5381,211.7861,-0.026244,-0.00929199,0.0,0 STARLINK-5440,1 54785U 22175AD  23138.58334491 -.00929199  00000-0 -26244-1 0  9990,2 54785  53.2127 277.6936 0001203  88.5381 211.7861 15.38554092  1302,6828.521,93.594,451.208,449.565,0.0
54785.0,STARLINK-5440,PAYLOAD,2023-05-18 22:00:00,15.37922061,0.0001102,53.2128,276.1288,73.8638,273.3459,-0.027278,-0.00944566,0.0,0 STARLINK-5440,1 54785U 22175AD  23138.91667824 -.00944566  00000-0 -27278-1 0  9999,2 54785  53.2128 276.1288 0001102  73.8638 273.3459 15.37922061  1308,6830.392,93.633,453.01,451.504,0.0
54785.0,STARLINK-5440,PAYLOAD,2023-05-19 06:00:00,15.37212675,0.0001154,53.2131,274.563,83.2982,310.049,-0.024962,-0.00852114,0.0,0 STARLINK-5440,1 54785U 22175AD  23139.25001157 -.00852114  00000-0 -24962-1 0  9992,2 54785  53.2131 274.5630 0001154  83.2982 310.0490 15.37212675 23692,6832.493,93.676,455.147,453.57,0.0
54785.0,STARLINK-5440,PAYLOAD,2023-05-19 19:54:57,15.3799313,0.0002739,53.2135,271.8536,0.3832,359.7175,-0.0066441,-0.00244477,0.0,0 STARLINK-5440,1 54785U 22175AD  23139.82982746 -.00244477  00000-0 -66441-2 0  9993,2 54785  53.2135 271.8536 0002739   0.3832 359.7175 15.37993130 25947,6830.181,93.629,453.917,450.176,0.0
54785.0,STARLINK-5440,PAYLOAD,2023-05-19 22:00:01,15.35972726,0.0001368,53.2133,271.4417,73.1501,50.1231,-0.029361,-0.00953442,0.0,0 STARLINK-5440,1 54785U 22175AD  23139.91668981 -.00953442  00000-0 -29361-1 0  9993,2 54785  53.2133 271.4417 0001368  73.1501  50.1231 15.35972726 23799,6836.17,93.752,458.97,457.1,0.0
54785.0,STARLINK-5440,PAYLOAD,2023-05-20 14:00:01,15.34635096,0.0001397,53.2134,268.3248,88.5316,121.4493,-0.029032,-0.00907091,0.0,0 STARLINK-5440,1 54785U 22175AD  23140.58334491 -.00907091  00000-0 -29032-1 0  9998,2 54785  53.2134 268.3248 0001397  88.5316 121.4493 15.34635096 23891,6840.142,93.833,462.962,461.051,0.0
54785.0,STARLINK-5440,PAYLOAD,2023-05-20 20:55:09,15.3579102,0.0002031,53.2145,266.9844,135.3739,224.7428,-0.0073949,-0.00253043,0.0,0 STARLINK-5440,1 54785U 22175AD  23140.87163538 -.00253043  00000-0 -73949-2 0  9990,2 54785  53.2145 266.9844 0002031 135.3739 224.7428 15.35791020 26108,6836.709,93.763,459.962,457.185,0.0
54785.0,STARLINK-5440,PAYLOAD,2023-05-21 14:00:01,15.32554974,0.0001338,53.213,263.6607,85.2488,249.4293,-0.032699,-0.00964334,0.0,0 STARLINK-5440,1 54785U 22175AD  23141.58334491 -.00964334  00000-0 -32699-1 0  9995,2 54785  53.2130 263.6607 0001338  85.2488 249.4293 15.32554974 24054,6846.33,93.961,469.111,467.279,0.0
54785.0,STARLINK-5440,PAYLOAD,2023-05-21 14:06:30,15.35156962,0.000165,53.2127,263.6411,67.6352,292.4826,-0.0053176,-0.00180109,0.0,0 STARLINK-5440,1 54785U 22175AD  23141.58785834 -.00180109  00000-0 -53176-2 0  9990,2 54785  53.2127 263.6411 0001650  67.6352 292.4826 15.35156962 26212,6838.591,93.801,461.585,459.328,0.0
54785.0,STARLINK-5440,PAYLOAD,2023-05-22 00:00:00,15.31688085,0.0001429,53.2126,261.7215,81.4584,32.6918,-0.028029,-0.00805456,0.0,0 STARLINK-5440,1 54785U 22175AD  23142.00001157 -.00805456  00000-0 -28029-1 0  9994,2 54785  53.2126 261.7215 0001429  81.4584  32.6918 15.31688085  1308,6848.913,94.014,471.756,469.799,0.0
54785.0,STARLINK-5440,PAYLOAD,2023-05-22 06:00:02,15.34152512,8.9e-05,53.2124,260.5447,90.8677,329.4246,0.001622,0.00054391,0.0,0 STARLINK-5440,1 54785U 22175AD  23142.25002315  .00054391  00000-0  16220-2 0  9991,2 54785  53.2124 260.5447 0000890  90.8677 329.4246 15.34152512 24151,6841.576,93.863,464.05,462.832,0.0
54785.0,STARLINK-5440,PAYLOAD,2023-05-22 14:00:01,15.34190811,9.37e-05,53.2122,258.991,78.0005,24.2614,-0.00030382,-0.00010557,0.0,0 STARLINK-5440,1 54785U 22175AD  23142.58334491 -.00010557  00000-0 -30382-3 0  9994,2 54785  53.2122 258.9910 0000937  78.0005  24.2614 15.34190811  1305,6841.462,93.861,463.968,462.686,0.0
54785.0,STARLINK-5440,PAYLOAD,2023-05-22 22:00:00,15.34196793,9.18e-05,53.2117,257.435,75.2708,69.0082,-0.00042888,-0.00014743,0.0,0 STARLINK-5440,1 54785U 22175AD  23142.91667824 -.00014743  00000-0 -42888-3 0  9995,2 54785  53.2117 257.4350 0000918  75.2708  69.0082 15.34196793 24259,6841.444,93.86,463.937,462.681,0.0
54785.0,STARLINK-5440,PAYLOAD,2023-05-23 22:00:00,15.34222411,8.51e-05,53.211,252.7678,75.3418,195.1113,-0.00081434,-0.00027633,0.0,0 STARLINK-5440,1 54785U 22175AD  23143.91667824 -.00027633  00000-0 -81434-3 0  9998,2 54785  53.2110 252.7678 0000851  75.3418 195.1113 15.34222411 24408,6841.368,93.859,463.815,462.651,0.0
54785.0,STARLINK-5440,PAYLOAD,2023-05-24 14:00:01,15.34222985,8.87e-05,53.2111,249.6565,74.5273,280.1598,-0.00019421,-6.894e-05,0.0,0 STARLINK-5440,1 54785U 22175AD  23144.58335648 -.00006894  00000-0 -19421-3 0  9991,2 54785  53.2111 249.6565 0000887  74.5273 280.1598 15.34222985 24518,6841.366,93.859,463.838,462.625,0.0
54785.0,STARLINK-5440,PAYLOAD,2023-05-24 22:00:00,15.342434,8.04e-05,53.2109,248.1001,72.9578,323.7535,-0.00075921,-0.00025811,0.0,0 STARLINK-5440,1 54785U 22175AD  23144.91667824 -.00025811  00000-0 -75921-3 0  9999,2 54785  53.2109 248.1001 0000804  72.9578 323.7535 15.34243400  1305,6841.306,93.857,463.721,462.621,0.0
54785.0,STARLINK-5440,PAYLOAD,2023-05-25 06:00:00,15.34223922,8.01e-05,53.2111,246.5429,88.2996,350.5204,0.0011127,0.00037193,0.0,0 STARLINK-5440,1 54785U 22175AD  23145.25001157  .00037193  00000-0  11127-2 0  9999,2 54785  53.2111 246.5429 0000801  88.2996 350.5204 15.34223922 24612,6841.364,93.859,463.777,462.681,0.0
54785.0,STARLINK-5440,PAYLOAD,2023-05-25 14:00:01,15.34241765,8.44e-05,53.2111,244.9889,70.1849,50.7475,-8.7982e-06,-6.71e-06,0.0,0 STARLINK-5440,1 54785U 22175AD  23145.58334491 -.00000671  00000-0 -87982-5 0  9993,2 54785  53.2111 244.9889 0000844  70.1849  50.7475 15.34241765  1303,6841.311,93.857,463.753,462.598,0.0
54785.0,STARLINK-5440,PAYLOAD,2023-05-25 22:00:00,15.34266261,7.74e-05,53.2111,243.4321,69.0978,93.9469,-0.00085277,-0.00028954,0.0,0 STARLINK-5440,1 54785U 22175AD  23145.91667824 -.00028954  00000-0 -85277-3 0  9996,2 54785  53.2111 243.4321 0000774  69.0978  93.9469 15.34266261 24710,6841.238,93.856,463.632,462.573,0.0
54785.0,STARLINK-5440,PAYLOAD,2023-05-26 00:00:02,15.34261691,7.51e-05,53.2114,243.0426,73.3724,190.2773,-0.00032766,-0.0001138,0.0,0 STARLINK-5440,1 54785U 22175AD  23146.00002315 -.00011380  00000-0 -32766-3 0  9995,2 54785  53.2114 243.0426 0000751  73.3724 190.2773 15.34261691  1308,6841.251,93.856,463.63,462.603,0.0
54785.0,STARLINK-5440,PAYLOAD,2023-05-26 12:55:35,15.34244704,8.87e-05,53.2138,240.5283,86.008,274.1024,8.596e-05,2.516e-05,0.0,0 STARLINK-5440,1 54785U 22175AD  23146.53860344  .00002516  00000-0  85960-4 0  9991,2 54785  53.2138 240.5283 0000887  86.0080 274.1024 15.34244704 26970,6841.302,93.857,463.774,462.56,0.0
54785.0,STARLINK-5440,PAYLOAD,2023-05-26 16:03:11,15.34246452,8.84e-05,53.2137,239.9196,83.454,276.6564,8.9204e-05,2.625e-05,0.0,0 STARLINK-5440,1 54785U 22175AD  23146.66888670  .00002625  00000-0  89204-4 0  9993,2 54785  53.2137 239.9196 0000884  83.4540 276.6564 15.34246452 26993,6841.297,93.857,463.766,462.557,0.0
54785.0,STARLINK-5440,PAYLOAD,2023-05-27 10:49:45,15.33626587,0.0001576,53.2137,236.275,66.7899,293.3269,-0.0023394,-0.00076717,0.0,0 STARLINK-5440,1 54785U 22175AD  23147.45121573 -.00076717  00000-0 -23394-2 0  9994,2 54785  53.2137 236.2750 0001576  66.7899 293.3269 15.33626587 24951,6843.14,93.895,466.083,463.926,0.0
54785.0,STARLINK-5440,PAYLOAD,2023-05-27 18:39:20,15.33317864,7.73e-05,53.2136,234.7572,87.9911,272.1181,-0.0033652,-0.0010866,0.0,0 STARLINK-5440,1 54785U 22175AD  23147.77732226 -.00108660  00000-0 -33652-2 0  9993,2 54785  53.2136 234.7572 0000773  87.9911 272.1181 15.33317864 25003,6844.058,93.914,466.453,465.394,0.0
54785.0,STARLINK-5440,PAYLOAD,2023-05-28 06:00:00,15.31550915,0.0001378,53.2124,232.5527,82.6663,8.3576,-0.032984,-0.00932198,0.0,0 STARLINK-5440,1 54785U 22175AD  23148.25001157 -.00932198  00000-0 -32984-1 0  9996,2 54785  53.2124 232.5527 0001378  82.6663   8.3576 15.31550915 25072,6849.321,94.022,472.13,470.243,0.0
54785.0,STARLINK-5440,PAYLOAD,2023-05-28 22:00:00,15.30238625,0.0001396,53.2125,229.4574,81.4023,85.7793,-0.034516,-0.00947871,0.0,0 STARLINK-5440,1 54785U 22175AD  23148.91667824 -.00947871  00000-0 -34516-1 0  9995,2 54785  53.2125 229.4574 0001396  81.4023  85.7793 15.30238625  1307,6853.237,94.103,476.058,474.145,0.0
54785.0,STARLINK-5440,PAYLOAD,2023-05-29 12:58:09,15.30584107,0.0001223,53.2123,226.574,59.4876,300.6246,-0.0084411,-0.00245219,0.0,0 STARLINK-5440,1 54785U 22175AD  23149.54039228 -.00245219  00000-0 -84411-2 0  9993,2 54785  53.2123 226.5740 0001223  59.4876 300.6246 15.30584107 27431,6852.205,94.082,474.908,473.232,0.0
54785.0,STARLINK-5440,PAYLOAD,2023-05-29 14:00:01,15.28902773,0.0001434,53.2128,226.3688,85.1131,155.0925,-0.033058,-0.00865889,0.0,0 STARLINK-5440,1 54785U 22175AD  23149.58334491 -.00865889  00000-0 -33058-1 0  9998,2 54785  53.2128 226.3688 0001434  85.1131 155.0925 15.28902773 25275,6857.228,94.185,480.076,478.11,0.0
54785.0,STARLINK-5440,PAYLOAD,2023-05-29 20:48:45,15.30209887,0.0006906,53.2116,225.057,36.0605,324.0861,-0.0092123,-0.0026413,0.0,0 STARLINK-5440,1 54785U 22175AD  23149.86719233 -.00264130  00000-0 -92123-2 0  9991,2 54785  53.2116 225.0570 0006906  36.0605 324.0861 15.30209887 27489,6853.323,94.105,479.92,470.455,0.0
